NORAD_CAT_ID,OBJECT_NAME,OBJECT_TYPE,EPOCH,MEAN_MOTION,ECCENTRICITY,INCLINATION,RA_OF_ASC_NODE,ARG_OF_PERICENTER,MEAN_ANOMALY,BSTAR,MEAN_MOTION_DOT,MEAN_MOTION_DDOT,TLE_LINE0,TLE_LINE1,TLE_LINE2,SEMIMAJOR_AXIS,PERIOD,APOGEE,PERIGEE,DECAYED
53554.0,STARLINK-4506,PAYLOAD,2023-03-22 12:01:59,15.08833964,0.0001136,53.215,246.7416,99.3386,260.7735,0.00012467,1.697e-05,0.0,0 STARLINK-4506,1 53554U 22101AD  23081.50137735  .00001697  00000-0  12467-3 0  9999,2 53554  53.2150 246.7416 0001136  99.3386 260.7735 15.08833964 32786,6917.899,95.438,540.55,538.978,0.0
53554.0,STARLINK-4506,PAYLOAD,2023-03-22 18:23:31,15.08843629,0.0001287,53.2161,245.5532,91.2888,268.8252,6.3263e-05,7.19e-06,0.0,0 STARLINK-4506,1 53554U 22101AD  23081.76633306  .00000719  00000-0  63263-4 0  9997,2 53554  53.2161 245.5532 0001287  91.2888 268.8252 15.08843629 32826,6917.869,95.437,540.625,538.844,0.0
53554.0,STARLINK-4506,PAYLOAD,2023-03-23 03:55:50,15.08838801,0.0001323,53.2158,243.7692,77.9476,282.1665,-3.1147e-06,-3.37e-06,0.0,0 STARLINK-4506,1 53554U 22101AD  23082.16377946 -.00000337  00000-0 -31147-5 0  9992,2 53554  53.2158 243.7692 0001323  77.9476 282.1665 15.08838801 32883,6917.884,95.438,540.664,538.834,0.0
53554.0,STARLINK-4506,PAYLOAD,2023-03-23 18:14:18,15.08843744,0.0001425,53.2161,241.0934,87.5792,272.5364,0.00011206,1.496e-05,0.0,0 STARLINK-4506,1 53554U 22101AD  23082.75993586  .00001496  00000-0  11206-3 0  9998,2 53554  53.2161 241.0934 0001425  87.5792 272.5364 15.08843744 32979,6917.869,95.437,540.72,538.748,0.0
53554.0,STARLINK-4506,PAYLOAD,2023-03-24 03:46:36,15.08845485,3.69e-05,53.2165,239.3092,95.788,264.3154,0.00030593,4.585e-05,0.0,0 STARLINK-4506,1 53554U 22101AD  23083.15736640  .00004585  00000-0  30593-3 0  9991,2 53554  53.2165 239.3092 0000369  95.7880 264.3154 15.08845485 33031,6917.864,95.437,539.984,539.473,0.0
53554.0,STARLINK-4506,PAYLOAD,2023-03-24 10:08:07,15.08869255,0.0001088,53.2172,238.1195,80.4351,279.6765,0.00037235,5.648e-05,0.0,0 STARLINK-4506,1 53554U 22101AD  23083.42231150  .00005648  00000-0  37235-3 0  9998,2 53554  53.2172 238.1195 0001088  80.4351 279.6765 15.08869255 33075,6917.791,95.436,540.409,538.903,0.0
53554.0,STARLINK-4506,PAYLOAD,2023-03-24 16:29:39,15.08884998,0.0001052,53.2168,236.9297,75.7127,284.3982,0.00071051,0.00011052,0.0,0 STARLINK-4506,1 53554U 22101AD  23083.68726716  .00011052  00000-0  71051-3 0  9993,2 53554  53.2168 236.9297 0001052  75.7127 284.3982 15.08884998 33118,6917.743,95.435,540.336,538.88,0.0
53554.0,STARLINK-4506,PAYLOAD,2023-03-25 03:37:22,15.08866229,0.0001496,53.2159,234.8494,69.6091,290.5061,0.00034422,5.198e-05,0.0,0 STARLINK-4506,1 53554U 22101AD  23084.15094969  .00005198  00000-0  34422-3 0  9999,2 53554  53.2159 234.8494 0001496  69.6091 290.5061 15.08866229 33189,6917.8,95.436,540.7,538.63,0.0
53554.0,STARLINK-4506,PAYLOAD,2023-03-25 09:58:56,15.08829195,0.0001309,53.2149,233.6618,72.1443,287.9692,-3.8896e-06,-3.5e-06,0.0,0 STARLINK-4506,1 53554U 22101AD  23084.41592712 -.00000350  00000-0 -38896-5 0  9995,2 53554  53.2149 233.6618 0001309  72.1443 287.9692 15.08829195 33222,6917.913,95.438,540.684,538.873,0.0
53554.0,STARLINK-4506,PAYLOAD,2023-03-25 16:20:28,15.08836513,9.35e-05,53.2162,232.47,86.8639,273.246,-3.2915e-05,-8.11e-06,0.0,0 STARLINK-4506,1 53554U 22101AD  23084.68088205 -.00000811  00000-0 -32915-4 0  9998,2 53554  53.2162 232.4700 0000935  86.8639 273.2460 15.08836513 33266,6917.891,95.438,540.403,539.109,0.0
53554.0,STARLINK-4506,PAYLOAD,2023-03-26 13:00:30,15.08820904,0.0001222,53.2144,228.6032,85.3192,274.7939,-0.00050909,-8.377e-05,0.0,0 STARLINK-4506,1 53554U 22101AD  23085.54201468 -.00008377  00000-0 -50909-3 0  9999,2 53554  53.2144 228.6032 0001222  85.3192 274.7939 15.08820904 33397,6917.939,95.439,540.649,538.958,0.0
53554.0,STARLINK-4506,PAYLOAD,2023-03-26 17:46:39,15.08837612,0.0001215,53.2149,227.7103,90.0632,270.05,-0.00038024,-6.334e-05,0.0,0 STARLINK-4506,1 53554U 22101AD  23085.74073945 -.00006334  00000-0 -38024-3 0  9993,2 53554  53.2149 227.7103 0001215  90.0632 270.0500 15.08837612 33426,6917.888,95.438,540.593,538.912,0.0
53554.0,STARLINK-4506,PAYLOAD,2023-03-27 14:26:40,15.08833028,0.0001168,53.2144,223.8445,98.0169,262.0956,0.00045712,6.993e-05,0.0,0 STARLINK-4506,1 53554U 22101AD  23086.60186165  .00006993  00000-0  45712-3 0  9999,2 53554  53.2144 223.8445 0001168  98.0169 262.0956 15.08833028 33554,6917.902,95.438,540.575,538.959,0.0
53554.0,STARLINK-4506,PAYLOAD,2023-03-27 19:12:50,15.08855308,0.0001193,53.2145,222.9524,94.5127,265.6002,0.0012045,0.00018942,0.0,0 STARLINK-4506,1 53554U 22101AD  23086.80058253  .00018942  00000-0  12045-2 0  9996,2 53554  53.2145 222.9524 0001193  94.5127 265.6002 15.08855308 33585,6917.834,95.437,540.524,538.873,0.0
53554.0,STARLINK-4506,PAYLOAD,2023-03-28 01:34:22,15.08851908,0.0001212,53.2151,221.7619,95.0087,265.1044,0.00057333,8.851e-05,0.0,0 STARLINK-4506,1 53554U 22101AD  23087.06554240  .00008851  00000-0  57333-3 0  9990,2 53554  53.2151 221.7619 0001212  95.0087 265.1044 15.08851908 33625,6917.844,95.437,540.547,538.871,0.0
53554.0,STARLINK-4506,PAYLOAD,2023-03-28 12:42:04,15.08849448,0.0001536,53.2144,219.6818,99.062,261.0546,0.00031464,4.724e-05,0.0,0 STARLINK-4506,1 53554U 22101AD  23087.52922270  .00004724  00000-0  31464-3 0  9995,2 53554  53.2144 219.6818 0001536  99.0620 261.0546 15.08849448 33695,6917.852,95.437,540.779,538.654,0.0
53554.0,STARLINK-4506,PAYLOAD,2023-03-28 14:17:27,15.08856176,0.00013,53.2143,219.384,89.7717,270.3424,0.00069633,0.00010816,0.0,0 STARLINK-4506,1 53554U 22101AD  23087.59546196  .00010816  00000-0  69633-3 0  9999,2 53554  53.2143 219.3840 0001300  89.7717 270.3424 15.08856176 33704,6917.831,95.437,540.595,538.797,0.0
53554.0,STARLINK-4506,PAYLOAD,2023-03-28 19:03:37,15.08868111,0.0001265,53.2143,218.4919,82.9806,277.133,0.0012196,0.0001919,0.0,0 STARLINK-4506,1 53554U 22101AD  23087.79417916  .00019190  00000-0  12196-2 0  9993,2 53554  53.2143 218.4919 0001265  82.9806 277.1330 15.08868111 33731,6917.794,95.436,540.535,538.784,0.0
53554.0,STARLINK-4506,PAYLOAD,2023-03-29 01:25:09,15.08852265,0.0001217,53.2141,217.3026,85.1793,274.9338,0.0014327,0.00022595,0.0,0 STARLINK-4506,1 53554U 22101AD  23088.05914297  .00022595  00000-0  14327-2 0  9998,2 53554  53.2141 217.3026 0001217  85.1793 274.9338 15.08852265 33773,6917.843,95.437,540.55,538.866,0.0
53554.0,STARLINK-4506,PAYLOAD,2023-03-29 12:32:51,15.08853992,0.0001314,53.2144,215.2211,91.5772,268.5371,0.0008447,0.00013186,0.0,0 STARLINK-4506,1 53554U 22101AD  23088.52282123  .00013186  00000-0  84470-3 0  9999,2 53554  53.2144 215.2211 0001314  91.5772 268.5371 15.08853992 33847,6917.838,95.437,540.612,538.794,0.0
53554.0,STARLINK-4506,PAYLOAD,2023-03-29 15:43:37,15.08866532,0.000137,53.2142,214.6264,92.5089,267.606,0.0012799,0.00020155,0.0,0 STARLINK-4506,1 53554U 22101AD  23088.65529886  .00020155  00000-0  12799-2 0  9991,2 53554  53.2142 214.6264 0001370  92.5089 267.6060 15.08866532 33861,6917.799,95.436,540.612,538.717,0.0
53554.0,STARLINK-4506,PAYLOAD,2023-03-30 12:23:38,15.08855109,0.0001365,53.214,210.761,86.8955,273.2193,0.0015444,0.00024387,0.0,0 STARLINK-4506,1 53554U 22101AD  23089.51642158  .00024387  00000-0  15444-2 0  9996,2 53554  53.2140 210.7610 0001365  86.8955 273.2193 15.08855109 33995,6917.834,95.437,540.643,538.755,0.0
53554.0,STARLINK-4506,PAYLOAD,2023-03-30 15:34:25,15.08860577,0.0001613,53.2142,210.1659,79.0626,281.0547,0.0015518,0.00024509,0.0,0 STARLINK-4506,1 53554U 22101AD  23089.64890070  .00024509  00000-0  15518-2 0  9996,2 53554  53.2142 210.1659 0001613  79.0626 281.0547 15.08860577 34018,6917.817,95.436,540.798,538.567,0.0
53554.0,STARLINK-4506,PAYLOAD,2023-03-31 01:06:44,15.08846197,0.0002262,53.2146,208.3806,73.0766,287.0474,0.00095232,0.00014903,0.0,0 STARLINK-4506,1 53554U 22101AD  23090.04634461  .00014903  00000-0  95232-3 0  9991,2 53554  53.2146 208.3806 0002262  73.0766 287.0474 15.08846197 34078,6917.861,95.437,541.291,538.162,0.0
53554.0,STARLINK-4506,PAYLOAD,2023-03-31 13:49:49,15.08844419,0.0002378,53.2149,206.0037,71.5288,288.5963,0.00081736,0.00012746,0.0,0 STARLINK-4506,1 53554U 22101AD  23090.57626536  .00012746  00000-0  81736-3 0  9990,2 53554  53.2149 206.0037 0002378  71.5288 288.5963 15.08844419 34155,6917.867,95.437,541.377,538.087,0.0
53554.0,STARLINK-4506,PAYLOAD,2023-04-01 00:57:31,15.08838278,0.0001394,53.2144,203.921,73.1594,286.9551,0.0003211,4.826e-05,0.0,0 STARLINK-4506,1 53554U 22101AD  23091.03994318  .00004826  00000-0  32110-3 0  9990,2 53554  53.2144 203.9210 0001394  73.1594 286.9551 15.08838278 34223,6917.886,95.438,540.715,538.786,0.0
53554.0,STARLINK-4506,PAYLOAD,2023-04-01 12:05:13,15.08820695,0.0002055,53.2137,201.839,80.42,279.7024,-7.5975e-05,-1.497e-05,0.0,0 STARLINK-4506,1 53554U 22101AD  23091.50363397 -.00001497  00000-0 -75975-4 0  9999,2 53554  53.2137 201.8390 0002055  80.4200 279.7024 15.08820695 34297,6917.939,95.439,541.226,538.383,0.0
53554.0,STARLINK-4506,PAYLOAD,2023-04-01 15:16:00,15.08826211,0.0001839,53.2144,201.2444,80.3762,279.7437,-5.2258e-06,-3.71e-06,0.0,0 STARLINK-4506,1 53554U 22101AD  23091.63611471 -.00000371  00000-0 -52258-5 0  9992,2 53554  53.2144 201.2444 0001839  80.3762 279.7437 15.08826211 34311,6917.923,95.438,541.06,538.515,0.0
53554.0,STARLINK-4506,PAYLOAD,2023-04-02 00:48:19,15.08838795,0.0001818,53.2143,199.4612,78.3769,281.7427,0.00056736,8.753e-05,0.0,0 STARLINK-4506,1 53554U 22101AD  23092.03355634  .00008753  00000-0  56736-3 0  9996,2 53554  53.2143 199.4612 0001818  78.3769 281.7427 15.08838795 34374,6917.884,95.438,541.007,538.491,0.0
53554.0,STARLINK-4506,PAYLOAD,2023-04-02 13:31:24,15.08866955,0.0001615,53.2148,197.0817,85.6686,274.449,0.0016796,0.00026564,0.0,0 STARLINK-4506,1 53554U 22101AD  23092.56347283  .00026564  00000-0  16796-2 0  9996,2 53554  53.2148 197.0817 0001615  85.6686 274.4490 15.08866955 34451,6917.798,95.436,540.78,538.546,0.0
